     2.11           G: GLONASS NAV DATA                     RINEX VERSION / TYPE
teqc  2019Feb25                         20210102 00:06:46UTCPGM / RUN BY / DATE
Linux 2.4.21-27.ELsmp|Opteron|gcc|Linux 64|=+               COMMENT
GN-RINEX 1.3        Geo++ GmbH          31-DEC-20 23:59     COMMENT
gfzrnx-1.13-7761    FILE MERGE          20210101 010301 UTC COMMENT
    18                                                      LEAP SECONDS
                                                            END OF HEADER
 1 20 12 31 23 45  0.0 7.282570004460D-05 0.000000000000D+00 7.380000000000D+04
   -1.488799804690D+03-2.196182250980D+00 3.725290298460D-09 0.000000000000D+00
    1.292880712890D+04-2.049269676210D+00 0.000000000000D+00 1.000000000000D+00
    2.193169775390D+04 1.059645652770D+00-9.313225746150D-10 0.000000000000D+00
 2 21  1  1 11 45  0.0 4.610531032090D-04 1.818989403550D-12 4.245000000000D+04
   -8.955041992190D+03 1.436877250670D+00-4.656612873080D-09 0.000000000000D+00
   -1.834875292970D+04 1.530306816100D+00-9.313225746150D-10-4.000000000000D+00
    1.536620703130D+04 2.664767265320D+00 9.313225746150D-10 0.000000000000D+00
 7 21  1  1 11 15  0.0-4.201009869580D-05 0.000000000000D+00 2.880000000000D+04
    1.817068505860D+04 8.184757232670D-01 2.793967723850D-09 0.000000000000D+00
    1.594814404300D+04 7.562503814700D-01 9.313225746150D-10 5.000000000000D+00
    8.090271484380D+03-3.345663070680D+00-2.793967723850D-09 0.000000000000D+00
 3 21  1  1 16 15  0.0 2.838205546140D-05 0.000000000000D+00 4.680000000000D+04
    1.502522949220D+04 1.752977371220D+00 9.313225746150D-10 0.000000000000D+00
   -1.458877050780D+04-9.472246170040D-01-9.313225746150D-10 5.000000000000D+00
    1.455863281250D+04-2.769986152650D+00-2.793967723850D-09 0.000000000000D+00
 4 21  1  1 16 15  0.0 6.817653775220D-05 1.818989403550D-12 4.680000000000D+04
   -1.688173828130D+03 2.838190078740D+00 0.000000000000D+00 0.000000000000D+00
   -1.107156738280D+04-1.333990097050D+00 9.313225746150D-10 6.000000000000D+00
    2.293745361330D+04-4.361734390260D-01-2.793967723850D-09 0.000000000000D+00
 5 21  1  1 16 15  0.0 6.396882236000D-05 9.094947017730D-13 8.007000000000D+04
   -1.754308935550D+04 2.344443321230D+00-2.793967723850D-09 0.000000000000D+00
   -1.481773437500D+03-9.531335830690D-01 3.725290298460D-09 1.000000000000D+00
    1.847386083980D+04 2.147936820980D+00 0.000000000000D+00 0.000000000000D+00
